{
  "type": "FeatureCollection",
  "features": [
    {
      "type": "Feature",
      "properties": {
        "norad_id": 30707,
        "name": "FENGYUN 1C DEB",
        "group": "fengyun-1c-debris",
        "lat": -53.874438309165356,
        "lon": -161.6929022356418,
        "alt_km": 825.6587951026331,
        "timestamp": "2025-12-03T17:47:50.995749+00:00",
        "meta_object_name": "FENGYUN 1C DEB",
        "meta_object_id": "1999-025ARR",
        "meta_epoch": "2025-12-02T20:45:52.242336",
        "meta_mean_motion": 14.26572873,
        "meta_eccentricity": 0.00285463,
        "meta_inclination": 99.4143,
        "meta_ra_of_asc_node": 30.5041,
        "meta_arg_of_pericenter": 98.0363,
        "meta_mean_anomaly": 318.3589,
        "meta_ephemeris_type": 0,
        "meta_classification_type": "U",
        "meta_norad_cat_id": 30707,
        "meta_element_set_no": 999,
        "meta_rev_at_epoch": 96662,
        "meta_bstar": 0.0019907959,
        "meta_mean_motion_dot": 4.777e-05,
        "meta_mean_motion_ddot": 0,
        "tle_line1": "1 30707U 99025ARR 25336.86518799  .00004777  00000+0  19908-2 0  9997",
        "tle_line2": "2 30707  99.4143  30.5041 0028546  98.0363 318.3589 14.26572873966627"
      },
      "geometry": {
        "type": "Point",
        "coordinates": [
          -161.6929022356418,
          -53.874438309165356
        ]
      }
    },
    {
      "type": "Feature",
      "properties": {
        "norad_id": 30708,
        "name": "FENGYUN 1C DEB",
        "group": "fengyun-1c-debris",
        "lat": 45.63801447256822,
        "lon": -17.343990406563957,
        "alt_km": 853.4312041675812,
        "timestamp": "2025-12-03T17:47:50.995759+00:00",
        "meta_object_name": "FENGYUN 1C DEB",
        "meta_object_id": "1999-025ARS",
        "meta_epoch": "2025-12-03T00:42:19.162944",
        "meta_mean_motion": 14.12169793,
        "meta_eccentricity": 0.00076033,
        "meta_inclination": 98.6908,
        "meta_ra_of_asc_node": 350.9636,
        "meta_arg_of_pericenter": 223.1759,
        "meta_mean_anomaly": 164.698,
        "meta_ephemeris_type": 0,
        "meta_classification_type": "U",
        "meta_norad_cat_id": 30708,
        "meta_element_set_no": 999,
        "meta_rev_at_epoch": 96699,
        "meta_bstar": 0.00020392115,
        "meta_mean_motion_dot": 3.32e-06,
        "meta_mean_motion_ddot": 0,
        "tle_line1": "1 30708U 99025ARS 25337.02938846  .00000332  00000+0  20392-3 0  9999",
        "tle_line2": "2 30708  98.6908 350.9636 0007603 223.1759 164.6980 14.12169793966993"
      },
      "geometry": {
        "type": "Point",
        "coordinates": [
          -17.343990406563957,
          45.63801447256822
        ]
      }
    },
    {
      "type": "Feature",
      "properties": {
        "norad_id": 30709,
        "name": "FENGYUN 1C DEB",
        "group": "fengyun-1c-debris",
        "lat": -79.24188761277188,
        "lon": 77.49013929484904,
        "alt_km": 790.2358354062135,
        "timestamp": "2025-12-03T17:47:50.995769+00:00",
        "meta_object_name": "FENGYUN 1C DEB",
        "meta_object_id": "1999-025ART",
        "meta_epoch": "2025-12-03T09:46:14.265120",
        "meta_mean_motion": 14.1730489,
        "meta_eccentricity": 0.0083503,
        "meta_inclination": 99.1429,
        "meta_ra_of_asc_node": 315.0968,
        "meta_arg_of_pericenter": 296.677,
        "meta_mean_anomaly": 62.5871,
        "meta_ephemeris_type": 0,
        "meta_classification_type": "U",
        "meta_norad_cat_id": 30709,
        "meta_element_set_no": 999,
        "meta_rev_at_epoch": 95864,
        "meta_bstar": 0.003823,
        "meta_mean_motion_dot": 7.957e-05,
        "meta_mean_motion_ddot": 0,
        "tle_line1": "1 30709U 99025ART 25337.40710955  .00007957  00000+0  38230-2 0  9990",
        "tle_line2": "2 30709  99.1429 315.0968 0083503 296.6770  62.5871 14.17304890958641"
      },
      "geometry": {
        "type": "Point",
        "coordinates": [
          77.49013929484904,
          -79.24188761277188
        ]
      }
    },
    {
      "type": "Feature",
      "properties": {
        "norad_id": 30710,
        "name": "FENGYUN 1C DEB",
        "group": "fengyun-1c-debris",
        "lat": 7.28470357669195,
        "lon": 45.225253592061584,
        "alt_km": 851.6086613757443,
        "timestamp": "2025-12-03T17:47:50.995779+00:00",
        "meta_object_name": "FENGYUN 1C DEB",
        "meta_object_id": "1999-025ARU",
        "meta_epoch": "2025-12-01T22:00:42.388128",
        "meta_mean_motion": 13.94035563,
        "meta_eccentricity": 0.02224947,
        "meta_inclination": 102.7465,
        "meta_ra_of_asc_node": 221.0587,
        "meta_arg_of_pericenter": 109.0042,
        "meta_mean_anomaly": 269.5002,
        "meta_ephemeris_type": 0,
        "meta_classification_type": "U",
        "meta_norad_cat_id": 30710,
        "meta_element_set_no": 999,
        "meta_rev_at_epoch": 94638,
        "meta_bstar": 0.0024742352,
        "meta_mean_motion_dot": 3.95e-05,
        "meta_mean_motion_ddot": 0,
        "tle_line1": "1 30710U 99025ARU 25335.91715727  .00003950  00000+0  24742-2 0  9990",
        "tle_line2": "2 30710 102.7465 221.0587 0222494 109.0042 269.5002 13.94035563946385"
      },
      "geometry": {
        "type": "Point",
        "coordinates": [
          45.225253592061584,
          7.28470357669195
        ]
      }
    },
    {
      "type": "Feature",
      "properties": {
        "norad_id": 30714,
        "name": "FENGYUN 1C DEB",
        "group": "fengyun-1c-debris",
        "lat": -41.392225683983106,
        "lon": -161.35967223477454,
        "alt_km": 885.4042197089175,
        "timestamp": "2025-12-03T17:47:50.995789+00:00",
        "meta_object_name": "FENGYUN 1C DEB",
        "meta_object_id": "1999-025ARY",
        "meta_epoch": "2025-12-03T09:56:42.463104",
        "meta_mean_motion": 14.03264944,
        "meta_eccentricity": 0.0066916,
        "meta_inclination": 98.8387,
        "meta_ra_of_asc_node": 26.2049,
        "meta_arg_of_pericenter": 308.9389,
        "meta_mean_anomaly": 61.8054,
        "meta_ephemeris_type": 0,
        "meta_classification_type": "U",
        "meta_norad_cat_id": 30714,
        "meta_element_set_no": 999,
        "meta_rev_at_epoch": 95862,
        "meta_bstar": 0.00097725,
        "meta_mean_motion_dot": 1.512e-05,
        "meta_mean_motion_ddot": 0,
        "tle_line1": "1 30714U 99025ARY 25337.41438036  .00001512  00000+0  97725-3 0  9990",
        "tle_line2": "2 30714  98.8387  26.2049 0066916 308.9389  61.8054 14.03264944958622"
      },
      "geometry": {
        "type": "Point",
        "coordinates": [
          -161.35967223477454,
          -41.392225683983106
        ]
      }
    },
    {
      "type": "Feature",
      "properties": {
        "norad_id": 30715,
        "name": "FENGYUN 1C DEB",
        "group": "fengyun-1c-debris",
        "lat": 74.77540727640881,
        "lon": 11.342509175373669,
        "alt_km": 857.2559682025976,
        "timestamp": "2025-12-03T17:47:50.995799+00:00",
        "meta_object_name": "FENGYUN 1C DEB",
        "meta_object_id": "1999-025ARZ",
        "meta_epoch": "2025-12-03T03:50:49.407648",
        "meta_mean_motion": 14.14580783,
        "meta_eccentricity": 0.00678473,
        "meta_inclination": 98.978,
        "meta_ra_of_asc_node": 46.2711,
        "meta_arg_of_pericenter": 194.6517,
        "meta_mean_anomaly": 165.269,
        "meta_ephemeris_type": 0,
        "meta_classification_type": "U",
        "meta_norad_cat_id": 30715,
        "meta_element_set_no": 999,
        "meta_rev_at_epoch": 96046,
        "meta_bstar": 0.0024796294,
        "meta_mean_motion_dot": 4.826e-05,
        "meta_mean_motion_ddot": 0,
        "tle_line1": "1 30715U 99025ARZ 25337.16029407  .00004826  00000+0  24796-2 0  9999",
        "tle_line2": "2 30715  98.9780  46.2711 0067847 194.6517 165.2690 14.14580783960460"
      },
      "geometry": {
        "type": "Point",
        "coordinates": [
          11.342509175373669,
          74.77540727640881
        ]
      }
    },
    {
      "type": "Feature",
      "properties": {
        "norad_id": 30716,
        "name": "FENGYUN 1C DEB",
        "group": "fengyun-1c-debris",
        "lat": -28.572962272956527,
        "lon": 164.7625032259326,
        "alt_km": 651.2375682552947,
        "timestamp": "2025-12-03T17:47:50.995809+00:00",
        "meta_object_name": "FENGYUN 1C DEB",
        "meta_object_id": "1999-025ASA",
        "meta_epoch": "2025-12-03T11:42:16.128288",
        "meta_mean_motion": 14.78458134,
        "meta_eccentricity": 0.0020081,
        "meta_inclination": 98.8721,
        "meta_ra_of_asc_node": 159.603,
        "meta_arg_of_pericenter": 115.1041,
        "meta_mean_anomaly": 305.7423,
        "meta_ephemeris_type": 0,
        "meta_classification_type": "U",
        "meta_norad_cat_id": 30716,
        "meta_element_set_no": 999,
        "meta_rev_at_epoch": 97687,
        "meta_bstar": 0.0055106,
        "meta_mean_motion_dot": 0.00040496,
        "meta_mean_motion_ddot": 0,
        "tle_line1": "1 30716U 99025ASA 25337.48768667  .00040496  00000+0  55106-2 0  9995",
        "tle_line2": "2 30716  98.8721 159.6030 0020081 115.1041 305.7423 14.78458134976878"
      },
      "geometry": {
        "type": "Point",
        "coordinates": [
          164.7625032259326,
          -28.572962272956527
        ]
      }
    }
  ]
}